{
  "type": "FeatureCollection",
  "features": [
    {
      "type": "Feature",
      "properties": {
        "norad_id": 30162,
        "name": "FENGYUN 1C DEB",
        "group": "fengyun-1c-debris",
        "lat": -68.63238750426714,
        "lon": 79.38535354959082,
        "alt_km": 863.73090967399,
        "timestamp": "2025-12-24T11:33:00.291180+00:00",
        "meta_object_name": "FENGYUN 1C DEB",
        "meta_object_id": "1999-025TT",
        "meta_epoch": "2025-12-24T03:08:23.065728",
        "meta_mean_motion": 13.53448331,
        "meta_eccentricity": 0.0314134,
        "meta_inclination": 99.4881,
        "meta_ra_of_asc_node": 53.7445,
        "meta_arg_of_pericenter": 320.717,
        "meta_mean_anomaly": 63.7877,
        "meta_ephemeris_type": 0,
        "meta_classification_type": "U",
        "meta_norad_cat_id": 30162,
        "meta_element_set_no": 999,
        "meta_rev_at_epoch": 92815,
        "meta_bstar": 0.0024953,
        "meta_mean_motion_dot": 2.248e-05,
        "meta_mean_motion_ddot": 0,
        "tle_line1": "1 30162U 99025TT  25358.13082252  .00002248  00000+0  24953-2 0  9993",
        "tle_line2": "2 30162  99.4881  53.7445 0314134 320.7170  63.7877 13.53448331928155"
      },
      "geometry": {
        "type": "Point",
        "coordinates": [
          79.38535354959082,
          -68.63238750426714
        ]
      }
    },
    {
      "type": "Feature",
      "properties": {
        "norad_id": 30163,
        "name": "FENGYUN 1C DEB",
        "group": "fengyun-1c-debris",
        "lat": 42.87180561816871,
        "lon": 103.75234644300498,
        "alt_km": 1371.206738460036,
        "timestamp": "2025-12-24T11:33:00.291190+00:00",
        "meta_object_name": "FENGYUN 1C DEB",
        "meta_object_id": "1999-025TU",
        "meta_epoch": "2025-12-23T21:36:54.533952",
        "meta_mean_motion": 13.38814247,
        "meta_eccentricity": 0.0374049,
        "meta_inclination": 98.7013,
        "meta_ra_of_asc_node": 111.4263,
        "meta_arg_of_pericenter": 204.5111,
        "meta_mean_anomaly": 283.6192,
        "meta_ephemeris_type": 0,
        "meta_classification_type": "U",
        "meta_norad_cat_id": 30163,
        "meta_element_set_no": 999,
        "meta_rev_at_epoch": 92094,
        "meta_bstar": 0.0018032,
        "meta_mean_motion_dot": 1.411e-05,
        "meta_mean_motion_ddot": 0,
        "tle_line1": "1 30163U 99025TU  25357.90063118  .00001411  00000+0  18032-2 0  9990",
        "tle_line2": "2 30163  98.7013 111.4263 0374049 204.5111 283.6192 13.38814247920948"
      },
      "geometry": {
        "type": "Point",
        "coordinates": [
          103.75234644300498,
          42.87180561816871
        ]
      }
    },
    {
      "type": "Feature",
      "properties": {
        "norad_id": 30167,
        "name": "FENGYUN 1C DEB",
        "group": "fengyun-1c-debris",
        "lat": -52.325022034457554,
        "lon": 96.17642852180893,
        "alt_km": 838.9368679366307,
        "timestamp": "2025-12-24T11:33:00.291201+00:00",
        "meta_object_name": "FENGYUN 1C DEB",
        "meta_object_id": "1999-025TY",
        "meta_epoch": "2025-12-24T03:48:06.045120",
        "meta_mean_motion": 14.4858265,
        "meta_eccentricity": 0.0144294,
        "meta_inclination": 98.9672,
        "meta_ra_of_asc_node": 84.0344,
        "meta_arg_of_pericenter": 120.4549,
        "meta_mean_anomaly": 303.9174,
        "meta_ephemeris_type": 0,
        "meta_classification_type": "U",
        "meta_norad_cat_id": 30167,
        "meta_element_set_no": 999,
        "meta_rev_at_epoch": 99524,
        "meta_bstar": 0.0004025,
        "meta_mean_motion_dot": 1.671e-05,
        "meta_mean_motion_ddot": 0,
        "tle_line1": "1 30167U 99025TY  25358.15840330  .00001671  00000+0  40250-3 0  9997",
        "tle_line2": "2 30167  98.9672  84.0344 0144294 120.4549 303.9174 14.48582650995241"
      },
      "geometry": {
        "type": "Point",
        "coordinates": [
          96.17642852180893,
          -52.325022034457554
        ]
      }
    },
    {
      "type": "Feature",
      "properties": {
        "norad_id": 30168,
        "name": "FENGYUN 1C DEB",
        "group": "fengyun-1c-debris",
        "lat": -22.09878419893644,
        "lon": -113.55418328609784,
        "alt_km": 713.7990477045514,
        "timestamp": "2025-12-24T11:33:00.291211+00:00",
        "meta_object_name": "FENGYUN 1C DEB",
        "meta_object_id": "1999-025TZ",
        "meta_epoch": "2025-12-24T04:01:17.660928",
        "meta_mean_motion": 14.53040049,
        "meta_eccentricity": 0.0100387,
        "meta_inclination": 97.3888,
        "meta_ra_of_asc_node": 69.1894,
        "meta_arg_of_pericenter": 118.4741,
        "meta_mean_anomaly": 242.6614,
        "meta_ephemeris_type": 0,
        "meta_classification_type": "U",
        "meta_norad_cat_id": 30168,
        "meta_element_set_no": 999,
        "meta_rev_at_epoch": 98477,
        "meta_bstar": 0.0017953,
        "meta_mean_motion_dot": 7.89e-05,
        "meta_mean_motion_ddot": 0,
        "tle_line1": "1 30168U 99025TZ  25358.16756552  .00007890  00000+0  17953-2 0  9993",
        "tle_line2": "2 30168  97.3888  69.1894 0100387 118.4741 242.6614 14.53040049984775"
      },
      "geometry": {
        "type": "Point",
        "coordinates": [
          -113.55418328609784,
          -22.09878419893644
        ]
      }
    },
    {
      "type": "Feature",
      "properties": {
        "norad_id": 30169,
        "name": "FENGYUN 1C DEB",
        "group": "fengyun-1c-debris",
        "lat": -65.62663433325197,
        "lon": -130.892816465974,
        "alt_km": 619.4886253326613,
        "timestamp": "2025-12-24T11:33:00.291221+00:00",
        "meta_object_name": "FENGYUN 1C DEB",
        "meta_object_id": "1999-025UA",
        "meta_epoch": "2025-12-23T03:17:13.591104",
        "meta_mean_motion": 14.58393589,
        "meta_eccentricity": 0.0212922,
        "meta_inclination": 98.3349,
        "meta_ra_of_asc_node": 66.6382,
        "meta_arg_of_pericenter": 194.9103,
        "meta_mean_anomaly": 196.2824,
        "meta_ephemeris_type": 0,
        "meta_classification_type": "U",
        "meta_norad_cat_id": 30169,
        "meta_element_set_no": 999,
        "meta_rev_at_epoch": 97875,
        "meta_bstar": 0.0027699,
        "meta_mean_motion_dot": 0.00017565,
        "meta_mean_motion_ddot": 0,
        "tle_line1": "1 30169U 99025UA  25357.13696286  .00017565  00000+0  27699-2 0  9995",
        "tle_line2": "2 30169  98.3349  66.6382 0212922 194.9103 196.2824 14.58393589978756"
      },
      "geometry": {
        "type": "Point",
        "coordinates": [
          -130.892816465974,
          -65.62663433325197
        ]
      }
    },
    {
      "type": "Feature",
      "properties": {
        "norad_id": 30170,
        "name": "FENGYUN 1C DEB",
        "group": "fengyun-1c-debris",
        "lat": -31.279801536098397,
        "lon": -9.432279170374096,
        "alt_km": 895.0057722647016,
        "timestamp": "2025-12-24T11:33:00.291232+00:00",
        "meta_object_name": "FENGYUN 1C DEB",
        "meta_object_id": "1999-025UB",
        "meta_epoch": "2025-12-22T10:35:18.313152",
        "meta_mean_motion": 14.00318842,
        "meta_eccentricity": 0.00773029,
        "meta_inclination": 98.8494,
        "meta_ra_of_asc_node": 343.1624,
        "meta_arg_of_pericenter": 247.3284,
        "meta_mean_anomaly": 241.5592,
        "meta_ephemeris_type": 0,
        "meta_classification_type": "U",
        "meta_norad_cat_id": 30170,
        "meta_element_set_no": 999,
        "meta_rev_at_epoch": 96551,
        "meta_bstar": 0.00030254741,
        "meta_mean_motion_dot": 4.16e-06,
        "meta_mean_motion_ddot": 0,
        "tle_line1": "1 30170U 99025UB  25356.44118418  .00000416  00000+0  30255-3 0  9996",
        "tle_line2": "2 30170  98.8494 343.1624 0077302 247.3284 241.5592 14.00318842965512"
      },
      "geometry": {
        "type": "Point",
        "coordinates": [
          -9.432279170374096,
          -31.279801536098397
        ]
      }
    },
    {
      "type": "Feature",
      "properties": {
        "norad_id": 30171,
        "name": "FENGYUN 1C DEB",
        "group": "fengyun-1c-debris",
        "lat": 43.172536034180794,
        "lon": -152.7852730065297,
        "alt_km": 1032.848838536057,
        "timestamp": "2025-12-24T11:33:00.291242+00:00",
        "meta_object_name": "FENGYUN 1C DEB",
        "meta_object_id": "1999-025UC",
        "meta_epoch": "2025-12-24T01:01:13.072224",
        "meta_mean_motion": 13.96869035,
        "meta_eccentricity": 0.018423,
        "meta_inclination": 98.3977,
        "meta_ra_of_asc_node": 214.7796,
        "meta_arg_of_pericenter": 235.6361,
        "meta_mean_anomaly": 122.7258,
        "meta_ephemeris_type": 0,
        "meta_classification_type": "U",
        "meta_norad_cat_id": 30171,
        "meta_element_set_no": 999,
        "meta_rev_at_epoch": 96428,
        "meta_bstar": 0.00033843,
        "meta_mean_motion_dot": 5.04e-06,
        "meta_mean_motion_ddot": 0,
        "tle_line1": "1 30171U 99025UC  25358.04251241  .00000504  00000+0  33843-3 0  9991",
        "tle_line2": "2 30171  98.3977 214.7796 0184230 235.6361 122.7258 13.96869035964283"
      },
      "geometry": {
        "type": "Point",
        "coordinates": [
          -152.7852730065297,
          43.172536034180794
        ]
      }
    }
  ]
}